STARLINK-37046          
1 68102U 26044B   26073.83335648 -.01798272  97741-3 -35231-2 0  9996
2 68102  97.2824  34.0929 0001404  99.6959 162.9767 16.00293324  2228
STARLINK-37018          
1 68103U 26044C   26073.83335648 -.01797576  97832-3 -34933-2 0  9992
2 68103  97.2821  34.0938 0001408  96.8267 168.0491 16.00435970  2171
STARLINK-37041          
1 68104U 26044D   26073.83335648 -.01796547  98032-3 -34386-2 0  9995
2 68104  97.2823  34.0956 0001333 100.6813 168.1046 16.00703585  2179
STARLINK-37021          
1 68105U 26044E   26073.83335648 -.01778393  96304-3 -33815-2 0  9991
2 68105  97.2818  34.0960 0001310  93.3142 177.1210 16.00817004  2172
STARLINK-37024          
1 68106U 26044F   26073.83335648 -.01770193  95611-3 -33416-2 0  9999
2 68106  97.2818  34.0967 0001340  92.5937 179.7097 16.00942753  2177
STARLINK-37005          
1 68107U 26044G   26073.83335648 -.01797427  97967-3 -34670-2 0  9998
2 68107  97.2820  34.0943 0001365  95.8565 170.9586 16.00567848  2179
STARLINK-37017          
1 68108U 26044H   26073.83335648 -.01793776  98198-3 -33572-2 0  9999
2 68108  97.2819  34.0979 0001294  93.1761 181.2543 16.01095611  2170
STARLINK-36833          
1 68109U 26044J   26073.83335648 -.01788510  97958-3 -32973-2 0  9997
2 68109  97.2812  34.0993 0001318  95.3681 182.9416 16.01357428  2222
STARLINK-36830          
1 68110U 26044K   26073.83335648 -.01781265  97065-3 -33080-2 0  9998
2 68110  97.2814  34.0985 0001372 100.5612 176.0373 16.01229232  2227
STARLINK-36791          
1 68111U 26044L   26073.83335648 -.01769527  96156-3 -32378-2 0  9995
2 68111  97.2814  34.1005 0001338  82.9568 197.3965 16.01486104  2177
STARLINK-36893          
1 68112U 26044M   26073.83335648 -.01763922  95723-3 -32047-2 0  9991
2 68112  97.2812  34.1009 0001278  90.7422 191.4218 16.01609260  2221
STARLINK-36937          
1 68113U 26044N   26073.83335648 -.01771305  96782-3 -31693-2 0  9998
2 68113  97.2812  34.1028 0001333 105.3516 180.6123 16.01874244  2177
STARLINK-36229          
1 68114U 26044P   26073.83335648 -.01773186  96830-3 -31961-2 0  9990
2 68114  97.2806  34.1013 0001284 105.3444 178.8259 16.01747438  2229
STARLINK-36392          
1 68115U 26044Q   26073.83335648 -.01784943  98370-3 -31659-2 0  9999
2 68115  97.2810  34.1034 0001247  96.6995 191.5205 16.02027194  2224
STARLINK-36805          
1 68116U 26044R   26073.83335648 -.01774145  97428-3 -31190-2 0  9996
2 68116  97.2808  34.1044 0001282  91.9134 198.8579 16.02178338  2226
STARLINK-36844          
1 68117U 26044S   26073.83335648 -.01710264  91027-3 -29911-2 0  9996
2 68117  97.2806  34.1051 0001012 100.4897 192.1593 16.02261405  2171
