[{"OBJECT_NAME":"STARLINK-37046","OBJECT_ID":"2026-044B","EPOCH":"2026-03-14T20:00:01.999872","MEAN_MOTION":16.00293324,"ECCENTRICITY":0.00014043,"INCLINATION":97.2824,"RA_OF_ASC_NODE":34.0929,"ARG_OF_PERICENTER":99.6959,"MEAN_ANOMALY":162.9767,"EPHEMERIS_TYPE":0,"CLASSIFICATION_TYPE":"U","NORAD_CAT_ID":68102,"ELEMENT_SET_NO":999,"REV_AT_EPOCH":222,"BSTAR":-0.0035230838,"MEAN_MOTION_DOT":-0.01798272,"MEAN_MOTION_DDOT":0.00097740702},{"OBJECT_NAME":"STARLINK-37018","OBJECT_ID":"2026-044C","EPOCH":"2026-03-14T20:00:01.999872","MEAN_MOTION":16.0043597,"ECCENTRICITY":0.0001408,"INCLINATION":97.2821,"RA_OF_ASC_NODE":34.0938,"ARG_OF_PERICENTER":96.8267,"MEAN_ANOMALY":168.0491,"EPHEMERIS_TYPE":0,"CLASSIFICATION_TYPE":"U","NORAD_CAT_ID":68103,"ELEMENT_SET_NO":999,"REV_AT_EPOCH":217,"BSTAR":-0.0034933104,"MEAN_MOTION_DOT":-0.01797576,"MEAN_MOTION_DDOT":0.00097831662},{"OBJECT_NAME":"STARLINK-37041","OBJECT_ID":"2026-044D","EPOCH":"2026-03-14T20:00:01.999872","MEAN_MOTION":16.00703585,"ECCENTRICITY":0.00013335,"INCLINATION":97.2823,"RA_OF_ASC_NODE":34.0956,"ARG_OF_PERICENTER":100.6813,"MEAN_ANOMALY":168.1046,"EPHEMERIS_TYPE":0,"CLASSIFICATION_TYPE":"U","NORAD_CAT_ID":68104,"ELEMENT_SET_NO":999,"REV_AT_EPOCH":217,"BSTAR":-0.0034385749,"MEAN_MOTION_DOT":-0.01796547,"MEAN_MOTION_DDOT":0.00098031845},{"OBJECT_NAME":"STARLINK-37021","OBJECT_ID":"2026-044E","EPOCH":"2026-03-14T20:00:01.999872","MEAN_MOTION":16.00817004,"ECCENTRICITY":0.00013103,"INCLINATION":97.2818,"RA_OF_ASC_NODE":34.096,"ARG_OF_PERICENTER":93.3142,"MEAN_ANOMALY":177.121,"EPHEMERIS_TYPE":0,"CLASSIFICATION_TYPE":"U","NORAD_CAT_ID":68105,"ELEMENT_SET_NO":999,"REV_AT_EPOCH":217,"BSTAR":-0.0033814893,"MEAN_MOTION_DOT":-0.01778393,"MEAN_MOTION_DDOT":0.00096304},{"OBJECT_NAME":"STARLINK-37024","OBJECT_ID":"2026-044F","EPOCH":"2026-03-14T20:00:01.999872","MEAN_MOTION":16.00942753,"ECCENTRICITY":0.00013404,"INCLINATION":97.2818,"RA_OF_ASC_NODE":34.0967,"ARG_OF_PERICENTER":92.5937,"MEAN_ANOMALY":179.7097,"EPHEMERIS_TYPE":0,"CLASSIFICATION_TYPE":"U","NORAD_CAT_ID":68106,"ELEMENT_SET_NO":999,"REV_AT_EPOCH":217,"BSTAR":-0.0033416121,"MEAN_MOTION_DOT":-0.01770193,"MEAN_MOTION_DDOT":0.00095611342},{"OBJECT_NAME":"STARLINK-37005","OBJECT_ID":"2026-044G","EPOCH":"2026-03-14T20:00:01.999872","MEAN_MOTION":16.00567848,"ECCENTRICITY":0.00013657,"INCLINATION":97.282,"RA_OF_ASC_NODE":34.0943,"ARG_OF_PERICENTER":95.8565,"MEAN_ANOMALY":170.9586,"EPHEMERIS_TYPE":0,"CLASSIFICATION_TYPE":"U","NORAD_CAT_ID":68107,"ELEMENT_SET_NO":999,"REV_AT_EPOCH":217,"BSTAR":-0.0034669544,"MEAN_MOTION_DOT":-0.01797427,"MEAN_MOTION_DDOT":0.00097966924},{"OBJECT_NAME":"STARLINK-37017","OBJECT_ID":"2026-044H","EPOCH":"2026-03-14T20:00:01.999872","MEAN_MOTION":16.01095611,"ECCENTRICITY":0.00012946,"INCLINATION":97.2819,"RA_OF_ASC_NODE":34.0979,"ARG_OF_PERICENTER":93.1761,"MEAN_ANOMALY":181.2543,"EPHEMERIS_TYPE":0,"CLASSIFICATION_TYPE":"U","NORAD_CAT_ID":68108,"ELEMENT_SET_NO":999,"REV_AT_EPOCH":217,"BSTAR":-0.0033571863,"MEAN_MOTION_DOT":-0.01793776,"MEAN_MOTION_DDOT":0.00098198135},{"OBJECT_NAME":"STARLINK-36833","OBJECT_ID":"2026-044J","EPOCH":"2026-03-14T20:00:01.999872","MEAN_MOTION":16.01357428,"ECCENTRICITY":0.00013183,"INCLINATION":97.2812,"RA_OF_ASC_NODE":34.0993,"ARG_OF_PERICENTER":95.3681,"MEAN_ANOMALY":182.9416,"EPHEMERIS_TYPE":0,"CLASSIFICATION_TYPE":"U","NORAD_CAT_ID":68109,"ELEMENT_SET_NO":999,"REV_AT_EPOCH":222,"BSTAR":-0.0032973014,"MEAN_MOTION_DOT":-0.0178851,"MEAN_MOTION_DDOT":0.00097957967},{"OBJECT_NAME":"STARLINK-36830","OBJECT_ID":"2026-044K","EPOCH":"2026-03-14T20:00:01.999872","MEAN_MOTION":16.01229232,"ECCENTRICITY":0.00013728,"INCLINATION":97.2814,"RA_OF_ASC_NODE":34.0985,"ARG_OF_PERICENTER":100.5612,"MEAN_ANOMALY":176.0373,"EPHEMERIS_TYPE":0,"CLASSIFICATION_TYPE":"U","NORAD_CAT_ID":68110,"ELEMENT_SET_NO":999,"REV_AT_EPOCH":222,"BSTAR":-0.0033080227,"MEAN_MOTION_DOT":-0.01781265,"MEAN_MOTION_DDOT":0.00097065127},{"OBJECT_NAME":"STARLINK-36791","OBJECT_ID":"2026-044L","EPOCH":"2026-03-14T20:00:01.999872","MEAN_MOTION":16.01486104,"ECCENTRICITY":0.00013384,"INCLINATION":97.2814,"RA_OF_ASC_NODE":34.1005,"ARG_OF_PERICENTER":82.9568,"MEAN_ANOMALY":197.3965,"EPHEMERIS_TYPE":0,"CLASSIFICATION_TYPE":"U","NORAD_CAT_ID":68111,"ELEMENT_SET_NO":999,"REV_AT_EPOCH":217,"BSTAR":-0.003237831,"MEAN_MOTION_DOT":-0.01769527,"MEAN_MOTION_DDOT":0.00096156455},{"OBJECT_NAME":"STARLINK-36893","OBJECT_ID":"2026-044M","EPOCH":"2026-03-14T20:00:01.999872","MEAN_MOTION":16.0160926,"ECCENTRICITY":0.00012784,"INCLINATION":97.2812,"RA_OF_ASC_NODE":34.1009,"ARG_OF_PERICENTER":90.7422,"MEAN_ANOMALY":191.4218,"EPHEMERIS_TYPE":0,"CLASSIFICATION_TYPE":"U","NORAD_CAT_ID":68112,"ELEMENT_SET_NO":999,"REV_AT_EPOCH":222,"BSTAR":-0.0032046684,"MEAN_MOTION_DOT":-0.01763922,"MEAN_MOTION_DDOT":0.00095723393},{"OBJECT_NAME":"STARLINK-36937","OBJECT_ID":"2026-044N","EPOCH":"2026-03-14T20:00:01.999872","MEAN_MOTION":16.01874244,"ECCENTRICITY":0.00013336,"INCLINATION":97.2812,"RA_OF_ASC_NODE":34.1028,"ARG_OF_PERICENTER":105.3516,"MEAN_ANOMALY":180.6123,"EPHEMERIS_TYPE":0,"CLASSIFICATION_TYPE":"U","NORAD_CAT_ID":68113,"ELEMENT_SET_NO":999,"REV_AT_EPOCH":217,"BSTAR":-0.0031693354,"MEAN_MOTION_DOT":-0.01771305,"MEAN_MOTION_DDOT":0.0009678237},{"OBJECT_NAME":"STARLINK-36229","OBJECT_ID":"2026-044P","EPOCH":"2026-03-14T20:00:01.999872","MEAN_MOTION":16.01747438,"ECCENTRICITY":0.00012847,"INCLINATION":97.2806,"RA_OF_ASC_NODE":34.1013,"ARG_OF_PERICENTER":105.3444,"MEAN_ANOMALY":178.8259,"EPHEMERIS_TYPE":0,"CLASSIFICATION_TYPE":"U","NORAD_CAT_ID":68114,"ELEMENT_SET_NO":999,"REV_AT_EPOCH":222,"BSTAR":-0.0031961093,"MEAN_MOTION_DOT":-0.01773186,"MEAN_MOTION_DDOT":0.00096829813},{"OBJECT_NAME":"STARLINK-36392","OBJECT_ID":"2026-044Q","EPOCH":"2026-03-14T20:00:01.999872","MEAN_MOTION":16.02027194,"ECCENTRICITY":0.00012472,"INCLINATION":97.281,"RA_OF_ASC_NODE":34.1034,"ARG_OF_PERICENTER":96.6995,"MEAN_ANOMALY":191.5205,"EPHEMERIS_TYPE":0,"CLASSIFICATION_TYPE":"U","NORAD_CAT_ID":68115,"ELEMENT_SET_NO":999,"REV_AT_EPOCH":222,"BSTAR":-0.0031658967,"MEAN_MOTION_DOT":-0.01784943,"MEAN_MOTION_DDOT":0.00098370388},{"OBJECT_NAME":"STARLINK-36805","OBJECT_ID":"2026-044R","EPOCH":"2026-03-14T20:00:01.999872","MEAN_MOTION":16.02178338,"ECCENTRICITY":0.00012824,"INCLINATION":97.2808,"RA_OF_ASC_NODE":34.1044,"ARG_OF_PERICENTER":91.9134,"MEAN_ANOMALY":198.8579,"EPHEMERIS_TYPE":0,"CLASSIFICATION_TYPE":"U","NORAD_CAT_ID":68116,"ELEMENT_SET_NO":999,"REV_AT_EPOCH":222,"BSTAR":-0.00311903,"MEAN_MOTION_DOT":-0.01774145,"MEAN_MOTION_DDOT":0.00097428279},{"OBJECT_NAME":"STARLINK-36844","OBJECT_ID":"2026-044S","EPOCH":"2026-03-14T20:00:01.999872","MEAN_MOTION":16.02261405,"ECCENTRICITY":0.0001012,"INCLINATION":97.2806,"RA_OF_ASC_NODE":34.1051,"ARG_OF_PERICENTER":100.4897,"MEAN_ANOMALY":192.1593,"EPHEMERIS_TYPE":0,"CLASSIFICATION_TYPE":"U","NORAD_CAT_ID":68117,"ELEMENT_SET_NO":999,"REV_AT_EPOCH":217,"BSTAR":-0.0029910647,"MEAN_MOTION_DOT":-0.01710264,"MEAN_MOTION_DDOT":0.00091026676}]
